CCSDS_OMM_VERS = 2.0
CREATION_DATE  = 
ORIGINATOR     = 

OBJECT_NAME    = STARLINK-36889
OBJECT_ID      = 2026-039W
CENTER_NAME    = EARTH
REF_FRAME      = TEME
TIME_SYSTEM    = UTC
MEAN_ELEMENT_THEORY = SGP/SGP4

EPOCH          = 2026-03-11T10:00:01.999584
MEAN_MOTION    = 15.81966209
ECCENTRICITY   = .000144
INCLINATION    = 42.9995
RA_OF_ASC_NODE = 44.1379
ARG_OF_PERICENTER = 271.0370
MEAN_ANOMALY   = 347.3515

EPHEMERIS_TYPE = 0
CLASSIFICATION_TYPE = U
NORAD_CAT_ID   = 68006
ELEMENT_SET_NO = 999
REV_AT_EPOCH   = 315
BSTAR          = .47218E-3
MEAN_MOTION_DOT = .9981E-3
MEAN_MOTION_DDOT = 0

CCSDS_OMM_VERS = 2.0
CREATION_DATE  = 
ORIGINATOR     = 

OBJECT_NAME    = STARLINK-36592
OBJECT_ID      = 2026-039X
CENTER_NAME    = EARTH
REF_FRAME      = TEME
TIME_SYSTEM    = UTC
MEAN_ELEMENT_THEORY = SGP/SGP4

EPOCH          = 2026-03-11T10:00:01.999584
MEAN_MOTION    = 15.81984870
ECCENTRICITY   = .0001678
INCLINATION    = 42.9994
RA_OF_ASC_NODE = 44.1278
ARG_OF_PERICENTER = 264.7434
MEAN_ANOMALY   = 357.9188

EPHEMERIS_TYPE = 0
CLASSIFICATION_TYPE = U
NORAD_CAT_ID   = 68007
ELEMENT_SET_NO = 999
REV_AT_EPOCH   = 315
BSTAR          = .27906E-3
MEAN_MOTION_DOT = .5854E-3
MEAN_MOTION_DDOT = 0

CCSDS_OMM_VERS = 2.0
CREATION_DATE  = 
ORIGINATOR     = 

OBJECT_NAME    = STARLINK-36911
OBJECT_ID      = 2026-039Y
CENTER_NAME    = EARTH
REF_FRAME      = TEME
TIME_SYSTEM    = UTC
MEAN_ELEMENT_THEORY = SGP/SGP4

EPOCH          = 2026-03-11T10:00:01.999584
MEAN_MOTION    = 15.81998262
ECCENTRICITY   = .0001772
INCLINATION    = 42.9994
RA_OF_ASC_NODE = 44.1175
ARG_OF_PERICENTER = 274.2914
MEAN_ANOMALY   = 352.6379

EPHEMERIS_TYPE = 0
CLASSIFICATION_TYPE = U
NORAD_CAT_ID   = 68008
ELEMENT_SET_NO = 999
REV_AT_EPOCH   = 315
BSTAR          = .22079E-3
MEAN_MOTION_DOT = .46167E-3
MEAN_MOTION_DDOT = 0

CCSDS_OMM_VERS = 2.0
CREATION_DATE  = 
ORIGINATOR     = 

OBJECT_NAME    = STARLINK-36956
OBJECT_ID      = 2026-039Z
CENTER_NAME    = EARTH
REF_FRAME      = TEME
TIME_SYSTEM    = UTC
MEAN_ELEMENT_THEORY = SGP/SGP4

EPOCH          = 2026-03-11T10:00:01.999584
MEAN_MOTION    = 15.81974112
ECCENTRICITY   = .000196
INCLINATION    = 42.9995
RA_OF_ASC_NODE = 44.1061
ARG_OF_PERICENTER = 281.4428
MEAN_ANOMALY   = 349.7571

EPHEMERIS_TYPE = 0
CLASSIFICATION_TYPE = U
NORAD_CAT_ID   = 68009
ELEMENT_SET_NO = 999
REV_AT_EPOCH   = 315
BSTAR          = .46165E-3
MEAN_MOTION_DOT = .97587E-3
MEAN_MOTION_DDOT = 0

CCSDS_OMM_VERS = 2.0
CREATION_DATE  = 
ORIGINATOR     = 

OBJECT_NAME    = STARLINK-36953
OBJECT_ID      = 2026-039AA
CENTER_NAME    = EARTH
REF_FRAME      = TEME
TIME_SYSTEM    = UTC
MEAN_ELEMENT_THEORY = SGP/SGP4

EPOCH          = 2026-03-11T10:00:01.999584
MEAN_MOTION    = 15.81910889
ECCENTRICITY   = .000144
INCLINATION    = 42.9993
RA_OF_ASC_NODE = 44.0839
ARG_OF_PERICENTER = 277.6244
MEAN_ANOMALY   = 2.1619

EPHEMERIS_TYPE = 0
CLASSIFICATION_TYPE = U
NORAD_CAT_ID   = 68010
ELEMENT_SET_NO = 999
REV_AT_EPOCH   = 315
BSTAR          = .94566E-3
MEAN_MOTION_DOT = .202312E-2
MEAN_MOTION_DDOT = 0

CCSDS_OMM_VERS = 2.0
CREATION_DATE  = 
ORIGINATOR     = 

OBJECT_NAME    = STARLINK-36991
OBJECT_ID      = 2026-039AB
CENTER_NAME    = EARTH
REF_FRAME      = TEME
TIME_SYSTEM    = UTC
MEAN_ELEMENT_THEORY = SGP/SGP4

EPOCH          = 2026-03-11T10:00:01.999584
MEAN_MOTION    = 15.81275163
ECCENTRICITY   = .00016
INCLINATION    = 42.9992
RA_OF_ASC_NODE = 44.0739
ARG_OF_PERICENTER = 267.2930
MEAN_ANOMALY   = 16.4869

EPHEMERIS_TYPE = 0
CLASSIFICATION_TYPE = U
NORAD_CAT_ID   = 68011
ELEMENT_SET_NO = 999
REV_AT_EPOCH   = 315
BSTAR          = -.10713E-1
MEAN_MOTION_DOT = -.1901922E-1
MEAN_MOTION_DDOT = 0

CCSDS_OMM_VERS = 2.0
CREATION_DATE  = 
ORIGINATOR     = 

OBJECT_NAME    = STARLINK-36936
OBJECT_ID      = 2026-039AC
CENTER_NAME    = EARTH
REF_FRAME      = TEME
TIME_SYSTEM    = UTC
MEAN_ELEMENT_THEORY = SGP/SGP4

EPOCH          = 2026-03-11T10:00:01.999584
MEAN_MOTION    = 15.81999072
ECCENTRICITY   = .0001171
INCLINATION    = 42.9992
RA_OF_ASC_NODE = 44.0515
ARG_OF_PERICENTER = 276.8447
MEAN_ANOMALY   = 15.6951

EPHEMERIS_TYPE = 0
CLASSIFICATION_TYPE = U
NORAD_CAT_ID   = 68012
ELEMENT_SET_NO = 999
REV_AT_EPOCH   = 315
BSTAR          = .33583E-3
MEAN_MOTION_DOT = .70701E-3
MEAN_MOTION_DDOT = 0

CCSDS_OMM_VERS = 2.0
CREATION_DATE  = 
ORIGINATOR     = 

OBJECT_NAME    = STARLINK-36967
OBJECT_ID      = 2026-039AD
CENTER_NAME    = EARTH
REF_FRAME      = TEME
TIME_SYSTEM    = UTC
MEAN_ELEMENT_THEORY = SGP/SGP4

EPOCH          = 2026-03-11T10:00:01.999584
MEAN_MOTION    = 15.82387455
ECCENTRICITY   = .0002008
INCLINATION    = 42.9992
RA_OF_ASC_NODE = 44.0943
ARG_OF_PERICENTER = 274.5087
MEAN_ANOMALY   = 0.9122

EPHEMERIS_TYPE = 0
CLASSIFICATION_TYPE = U
NORAD_CAT_ID   = 68013
ELEMENT_SET_NO = 999
REV_AT_EPOCH   = 315
BSTAR          = -.77934E-2
MEAN_MOTION_DOT = -.1477282E-1
MEAN_MOTION_DDOT = 0

CCSDS_OMM_VERS = 2.0
CREATION_DATE  = 
ORIGINATOR     = 

OBJECT_NAME    = STARLINK-36985
OBJECT_ID      = 2026-039AE
CENTER_NAME    = EARTH
REF_FRAME      = TEME
TIME_SYSTEM    = UTC
MEAN_ELEMENT_THEORY = SGP/SGP4

EPOCH          = 2026-03-11T10:00:01.999584
MEAN_MOTION    = 15.82019778
ECCENTRICITY   = .0002222
INCLINATION    = 42.9992
RA_OF_ASC_NODE = 44.0629
ARG_OF_PERICENTER = 274.3356
MEAN_ANOMALY   = 13.9184

EPHEMERIS_TYPE = 0
CLASSIFICATION_TYPE = U
NORAD_CAT_ID   = 68014
ELEMENT_SET_NO = 999
REV_AT_EPOCH   = 315
BSTAR          = .19698E-3
MEAN_MOTION_DOT = .41151E-3
MEAN_MOTION_DDOT = 0

CCSDS_OMM_VERS = 2.0
CREATION_DATE  = 
ORIGINATOR     = 

OBJECT_NAME    = STARLINK-36335
OBJECT_ID      = 2026-040A
CENTER_NAME    = EARTH
REF_FRAME      = TEME
TIME_SYSTEM    = UTC
MEAN_ELEMENT_THEORY = SGP/SGP4

EPOCH          = 2026-03-11T10:00:01.999584
MEAN_MOTION    = 16.01637271
ECCENTRICITY   = .0001042
INCLINATION    = 97.2762
RA_OF_ASC_NODE = 18.7478
ARG_OF_PERICENTER = 92.6960
MEAN_ANOMALY   = 267.6822

EPHEMERIS_TYPE = 0
CLASSIFICATION_TYPE = U
NORAD_CAT_ID   = 68015
ELEMENT_SET_NO = 999
REV_AT_EPOCH   = 265
BSTAR          = -.21608E-2
MEAN_MOTION_DOT = -.1196512E-1
MEAN_MOTION_DDOT = .46541E-3

CCSDS_OMM_VERS = 2.0
CREATION_DATE  = 
ORIGINATOR     = 

OBJECT_NAME    = STARLINK-36923
OBJECT_ID      = 2026-040B
CENTER_NAME    = EARTH
REF_FRAME      = TEME
TIME_SYSTEM    = UTC
MEAN_ELEMENT_THEORY = SGP/SGP4

EPOCH          = 2026-03-11T10:00:01.999584
MEAN_MOTION    = 16.01840091
ECCENTRICITY   = .0000903
INCLINATION    = 97.2764
RA_OF_ASC_NODE = 18.7509
ARG_OF_PERICENTER = 98.1678
MEAN_ANOMALY   = 268.5876

EPHEMERIS_TYPE = 0
CLASSIFICATION_TYPE = U
NORAD_CAT_ID   = 68016
ELEMENT_SET_NO = 999
REV_AT_EPOCH   = 270
BSTAR          = -.21199E-2
MEAN_MOTION_DOT = -.1187768E-1
MEAN_MOTION_DDOT = .4602E-3

CCSDS_OMM_VERS = 2.0
CREATION_DATE  = 
ORIGINATOR     = 

OBJECT_NAME    = STARLINK-36568
OBJECT_ID      = 2026-040C
CENTER_NAME    = EARTH
REF_FRAME      = TEME
TIME_SYSTEM    = UTC
MEAN_ELEMENT_THEORY = SGP/SGP4

EPOCH          = 2026-03-11T10:00:01.999584
MEAN_MOTION    = 16.01937518
ECCENTRICITY   = .0000938
INCLINATION    = 97.2763
RA_OF_ASC_NODE = 18.7522
ARG_OF_PERICENTER = 98.2060
MEAN_ANOMALY   = 271.4982

EPHEMERIS_TYPE = 0
CLASSIFICATION_TYPE = U
NORAD_CAT_ID   = 68017
ELEMENT_SET_NO = 999
REV_AT_EPOCH   = 270
BSTAR          = -.2101E-2
MEAN_MOTION_DOT = -.1183898E-1
MEAN_MOTION_DDOT = .45795E-3

