STARLINK-36889          
1 68006U 26039W   26070.41668981  .00099810  00000+0  47218-3 0  9999
2 68006  42.9995  44.1379 0001440 271.0370 347.3515 15.81966209  3151
STARLINK-36592          
1 68007U 26039X   26070.41668981  .00058540  00000+0  27906-3 0  9997
2 68007  42.9994  44.1278 0001678 264.7434 357.9188 15.81984870  3159
STARLINK-36911          
1 68008U 26039Y   26070.41668981  .00046167  00000+0  22079-3 0  9996
2 68008  42.9994  44.1175 0001772 274.2914 352.6379 15.81998262  3154
STARLINK-36956          
1 68009U 26039Z   26070.41668981  .00097587  00000+0  46165-3 0  9991
2 68009  42.9995  44.1061 0001960 281.4428 349.7571 15.81974112  3158
STARLINK-36953          
1 68010U 26039AA  26070.41668981  .00202312  00000+0  94566-3 0  9995
2 68010  42.9993  44.0839 0001440 277.6244   2.1619 15.81910889  3150
STARLINK-36991          
1 68011U 26039AB  26070.41668981 -.01901922  00000+0 -10713-1 0  9992
2 68011  42.9992  44.0739 0001600 267.2930  16.4869 15.81275163  3158
STARLINK-36936          
1 68012U 26039AC  26070.41668981  .00070701  00000+0  33583-3 0  9994
2 68012  42.9992  44.0515 0001171 276.8447  15.6951 15.81999072  3158
STARLINK-36967          
1 68013U 26039AD  26070.41668981 -.01477282  00000+0 -77934-2 0  9990
2 68013  42.9992  44.0943 0002008 274.5087   0.9122 15.82387455  3153
STARLINK-36985          
1 68014U 26039AE  26070.41668981  .00041151  00000+0  19698-3 0  9994
2 68014  42.9992  44.0629 0002222 274.3356  13.9184 15.82019778  3152
STARLINK-36335          
1 68015U 26040A   26070.41668981 -.01196512  46541-3 -21608-2 0  9999
2 68015  97.2762  18.7478 0001042  92.6960 267.6822 16.01637271  2659
STARLINK-36923          
1 68016U 26040B   26070.41668981 -.01187768  46020-3 -21199-2 0  9990
2 68016  97.2764  18.7509 0000903  98.1678 268.5876 16.01840091  2700
STARLINK-36568          
1 68017U 26040C   26070.41668981 -.01183898  45795-3 -21010-2 0  9991
2 68017  97.2763  18.7522 0000938  98.2060 271.4982 16.01937518  2701
